ORBCOMM-X               
1 21576U 91050C   25138.91274334  .00000406  00000+0  13348-3 0  9999
2 21576  98.3445 206.1052 0002305 275.9799  84.1128 14.43241080777899
ORBCOMM FM01            
1 23545U 95017A   25139.19677517  .00005354  00000+0  56611-3 0  9992
2 23545  69.9617 146.4071 0004484 312.9977  47.0801 14.89753043608547
ORBCOMM FM02            
1 23546U 95017B   25138.81991771  .00006971  00000+0  72001-3 0  9999
2 23546  69.9635 166.8267 0005558 324.9286  35.1502 14.90541953607788
ORBCOMM FM08            
1 25112U 97084A   25139.43508059  .00001197  00000+0  37513-3 0  9992
2 25112  45.0124 145.8775 0003872  99.9357 260.1932 14.45724624437385
ORBCOMM FM10            
1 25113U 97084B   25139.34286336  .00001149  00000+0  36347-3 0  9995
2 25113  45.0135 148.6505 0003127  39.0920 321.0157 14.45513000437351
ORBCOMM FM11            
1 25114U 97084C   25138.51295715  .00001347  00000+0  42111-3 0  9991
2 25114  45.0121 153.2120 0003837  42.2076 317.9070 14.45265925437211
ORBCOMM FM12            
1 25115U 97084D   25139.44360414  .00001118  00000+0  35633-3 0  9991
2 25115  45.0129 148.5015 0002978  36.5656 323.5398 14.45287392437358
ORBCOMM FM09            
1 25116U 97084E   25139.05868275  .00001246  00000+0  39348-3 0  9996
2 25116  45.0133 151.2514 0004619  30.2238 329.8879 14.45165162437296
